{"type":"FeatureCollection","features":[{"type":"Feature","properties":{"Name":"Rectangle"},"geometry":{"coordinates":[[[67.08393114174501,25.014288132773146],[67.08393114174501,25.008789582718194],[67.09152526290708,25.008789582718194],[67.09152526290708,25.014288132773146],[67.08393114174501,25.014288132773146]]],"type":"Polygon"},"id":0},{"type":"Feature","properties":{"Name":"Polygon","stroke":"#555555","stroke-width":2,"stroke-opacity":1,"fill":"#555555","fill-opacity":0.5},"geometry":{"coordinates":[[[67.0302752316154,24.93672379461252],[67.04593696109464,24.92600287784542],[67.05120715395205,24.93159796449079],[67.05442407581381,24.936962058721917],[67.05917857621463,24.940807384083485],[67.06468645793731,24.947898517545497],[67.04992713612762,24.958378187302813],[67.0302752316154,24.93672379461252]]],"type":"Polygon"},"id":1}]}